{
  "type": "FeatureCollection",
  "features": [
    {
      "type": "Feature",
      "properties": {
        "norad_id": 34396,
        "name": "COSMOS 2251 DEB",
        "group": "cosmos-2251-debris",
        "lat": -9.766848322097594,
        "lon": -76.51379260423771,
        "alt_km": 647.8800711416707,
        "timestamp": "2025-12-24T16:52:41.931678+00:00",
        "meta_object_name": "COSMOS 2251 DEB",
        "meta_object_id": "1993-036QM",
        "meta_epoch": "2025-12-23T17:54:48.174624",
        "meta_mean_motion": 14.74694901,
        "meta_eccentricity": 0.00047406,
        "meta_inclination": 74.0294,
        "meta_ra_of_asc_node": 102.5296,
        "meta_arg_of_pericenter": 138.8654,
        "meta_mean_anomaly": 13.2669,
        "meta_ephemeris_type": 0,
        "meta_classification_type": "U",
        "meta_norad_cat_id": 34396,
        "meta_element_set_no": 999,
        "meta_rev_at_epoch": 88508,
        "meta_bstar": 0.0020635152,
        "meta_mean_motion_dot": 0.00013784,
        "meta_mean_motion_ddot": 0,
        "tle_line1": "1 34396U 93036QM  25357.74639091  .00013784  00000+0  20635-2 0  9997",
        "tle_line2": "2 34396  74.0294 102.5296 0004740 138.8654  13.2669 14.74694901885089"
      },
      "geometry": {
        "type": "Point",
        "coordinates": [
          -76.51379260423771,
          -9.766848322097594
        ]
      }
    },
    {
      "type": "Feature",
      "properties": {
        "norad_id": 34400,
        "name": "COSMOS 2251 DEB",
        "group": "cosmos-2251-debris",
        "lat": 72.54024993878079,
        "lon": 62.89904424914965,
        "alt_km": 384.61583655536197,
        "timestamp": "2025-12-24T16:52:41.931689+00:00",
        "meta_object_name": "COSMOS 2251 DEB",
        "meta_object_id": "1993-036QR",
        "meta_epoch": "2025-12-24T01:07:12.164448",
        "meta_mean_motion": 15.58635981,
        "meta_eccentricity": 0.00028837,
        "meta_inclination": 73.9625,
        "meta_ra_of_asc_node": 358.2177,
        "meta_arg_of_pericenter": 215.0661,
        "meta_mean_anomaly": 145.0367,
        "meta_ephemeris_type": 0,
        "meta_classification_type": "U",
        "meta_norad_cat_id": 34400,
        "meta_element_set_no": 999,
        "meta_rev_at_epoch": 90150,
        "meta_bstar": 0.0033378255,
        "meta_mean_motion_dot": 0.00264923,
        "meta_mean_motion_ddot": 0,
        "tle_line1": "1 34400U 93036QR  25358.04666857  .00264923  00000+0  33378-2 0  9998",
        "tle_line2": "2 34400  73.9625 358.2177 0002883 215.0661 145.0367 15.58635981901502"
      },
      "geometry": {
        "type": "Point",
        "coordinates": [
          62.89904424914965,
          72.54024993878079
        ]
      }
    },
    {
      "type": "Feature",
      "properties": {
        "norad_id": 34409,
        "name": "COSMOS 2251 DEB",
        "group": "cosmos-2251-debris",
        "lat": 74.0517072185863,
        "lon": 15.072942368420136,
        "alt_km": 696.4690176886506,
        "timestamp": "2025-12-24T16:52:41.931700+00:00",
        "meta_object_name": "COSMOS 2251 DEB",
        "meta_object_id": "1993-036RA",
        "meta_epoch": "2025-12-24T05:29:43.300032",
        "meta_mean_motion": 14.58054247,
        "meta_eccentricity": 0.00803595,
        "meta_inclination": 74.0638,
        "meta_ra_of_asc_node": 285.0167,
        "meta_arg_of_pericenter": 356.3555,
        "meta_mean_anomaly": 124.4674,
        "meta_ephemeris_type": 0,
        "meta_classification_type": "U",
        "meta_norad_cat_id": 34409,
        "meta_element_set_no": 999,
        "meta_rev_at_epoch": 89360,
        "meta_bstar": 0.00024650128,
        "meta_mean_motion_dot": 1.154e-05,
        "meta_mean_motion_ddot": 0,
        "tle_line1": "1 34409U 93036RA  25358.22897338  .00001154  00000+0  24650-3 0  9996",
        "tle_line2": "2 34409  74.0638 285.0167 0080359 356.3555 124.4674 14.58054247893600"
      },
      "geometry": {
        "type": "Point",
        "coordinates": [
          15.072942368420136,
          74.0517072185863
        ]
      }
    },
    {
      "type": "Feature",
      "properties": {
        "norad_id": 34410,
        "name": "COSMOS 2251 DEB",
        "group": "cosmos-2251-debris",
        "lat": -65.69762437298142,
        "lon": 96.50819280424179,
        "alt_km": 527.330395571068,
        "timestamp": "2025-12-24T16:52:41.931711+00:00",
        "meta_object_name": "COSMOS 2251 DEB",
        "meta_object_id": "1993-036RB",
        "meta_epoch": "2025-12-24T02:06:04.033152",
        "meta_mean_motion": 15.19927518,
        "meta_eccentricity": 0.00212144,
        "meta_inclination": 73.7352,
        "meta_ra_of_asc_node": 237.5404,
        "meta_arg_of_pericenter": 76.9591,
        "meta_mean_anomaly": 47.0152,
        "meta_ephemeris_type": 0,
        "meta_classification_type": "U",
        "meta_norad_cat_id": 34410,
        "meta_element_set_no": 999,
        "meta_rev_at_epoch": 89946,
        "meta_bstar": 0.0019981044,
        "meta_mean_motion_dot": 0.00043435,
        "meta_mean_motion_ddot": 0,
        "tle_line1": "1 34410U 93036RB  25358.08754668  .00043435  00000+0  19981-2 0  9998",
        "tle_line2": "2 34410  73.7352 237.5404 0021214  76.9591  47.0152 15.19927518899466"
      },
      "geometry": {
        "type": "Point",
        "coordinates": [
          96.50819280424179,
          -65.69762437298142
        ]
      }
    },
    {
      "type": "Feature",
      "properties": {
        "norad_id": 34412,
        "name": "COSMOS 2251 DEB",
        "group": "cosmos-2251-debris",
        "lat": -13.310534689935364,
        "lon": 126.01472938938271,
        "alt_km": 863.2817970615006,
        "timestamp": "2025-12-24T16:52:41.931722+00:00",
        "meta_object_name": "COSMOS 2251 DEB",
        "meta_object_id": "1993-036RD",
        "meta_epoch": "2025-12-24T06:02:29.414112",
        "meta_mean_motion": 14.47276709,
        "meta_eccentricity": 0.01876387,
        "meta_inclination": 73.949,
        "meta_ra_of_asc_node": 302.9581,
        "meta_arg_of_pericenter": 35.3619,
        "meta_mean_anomaly": 325.9814,
        "meta_ephemeris_type": 0,
        "meta_classification_type": "U",
        "meta_norad_cat_id": 34412,
        "meta_element_set_no": 999,
        "meta_rev_at_epoch": 87817,
        "meta_bstar": 0.0018649119,
        "meta_mean_motion_dot": 8.49e-05,
        "meta_mean_motion_ddot": 0,
        "tle_line1": "1 34412U 93036RD  25358.25172933  .00008490  00000+0  18649-2 0  9990",
        "tle_line2": "2 34412  73.9490 302.9581 0187638  35.3619 325.9814 14.47276709878176"
      },
      "geometry": {
        "type": "Point",
        "coordinates": [
          126.01472938938271,
          -13.310534689935364
        ]
      }
    },
    {
      "type": "Feature",
      "properties": {
        "norad_id": 34413,
        "name": "COSMOS 2251 DEB",
        "group": "cosmos-2251-debris",
        "lat": -73.69218704976701,
        "lon": 141.32209454547876,
        "alt_km": 759.7557286968795,
        "timestamp": "2025-12-24T16:52:41.931733+00:00",
        "meta_object_name": "COSMOS 2251 DEB",
        "meta_object_id": "1993-036RE",
        "meta_epoch": "2025-12-24T02:53:40.132032",
        "meta_mean_motion": 14.29179217,
        "meta_eccentricity": 0.0090957,
        "meta_inclination": 74.0303,
        "meta_ra_of_asc_node": 244.2075,
        "meta_arg_of_pericenter": 318.6048,
        "meta_mean_anomaly": 192.2741,
        "meta_ephemeris_type": 0,
        "meta_classification_type": "U",
        "meta_norad_cat_id": 34413,
        "meta_element_set_no": 999,
        "meta_rev_at_epoch": 87293,
        "meta_bstar": 0.001417195,
        "meta_mean_motion_dot": 3.737e-05,
        "meta_mean_motion_ddot": 0,
        "tle_line1": "1 34413U 93036RE  25358.12060338  .00003737  00000+0  14172-2 0  9998",
        "tle_line2": "2 34413  74.0303 244.2075 0090957 318.6048 192.2741 14.29179217872936"
      },
      "geometry": {
        "type": "Point",
        "coordinates": [
          141.32209454547876,
          -73.69218704976701
        ]
      }
    },
    {
      "type": "Feature",
      "properties": {
        "norad_id": 34420,
        "name": "COSMOS 2251 DEB",
        "group": "cosmos-2251-debris",
        "lat": -62.12048546573403,
        "lon": -66.41534453781766,
        "alt_km": 622.471392862456,
        "timestamp": "2025-12-24T16:52:41.931744+00:00",
        "meta_object_name": "COSMOS 2251 DEB",
        "meta_object_id": "1993-036RM",
        "meta_epoch": "2025-12-24T01:20:33.094176",
        "meta_mean_motion": 14.68329335,
        "meta_eccentricity": 0.01061118,
        "meta_inclination": 74.0333,
        "meta_ra_of_asc_node": 82.0704,
        "meta_arg_of_pericenter": 200.5226,
        "meta_mean_anomaly": 225.0458,
        "meta_ephemeris_type": 0,
        "meta_classification_type": "U",
        "meta_norad_cat_id": 34420,
        "meta_element_set_no": 999,
        "meta_rev_at_epoch": 89936,
        "meta_bstar": 0.00021051187,
        "meta_mean_motion_dot": 1.288e-05,
        "meta_mean_motion_ddot": 0,
        "tle_line1": "1 34420U 93036RM  25358.05593859  .00001288  00000+0  21051-3 0  9991",
        "tle_line2": "2 34420  74.0333  82.0704 0106111 200.5226 225.0458 14.68329335899368"
      },
      "geometry": {
        "type": "Point",
        "coordinates": [
          -66.41534453781766,
          -62.12048546573403
        ]
      }
    }
  ]
}